[
    {
        "Altitude(m)": 566032.8702059735,
        "Argument of Periapsis(deg)": -0.022603160782972403,
        "Eccentricity": 0.0,
        "Inclination(deg)": 97.0,
        "Latitude(deg)": 20.0787162974084,
        "Longitude(deg)": 170.21348558433314,
        "Mean Anomaly(deg)": 159.7900432691875,
        "RAAN(deg)": 90.0059470536185,
        "Satellite Name": "Starlink Shell 3 1778",
        "Satellite Number": 1778,
        "Semi-Major Axis(m)": 6938478.169268562,
        "Time(s)": 570
    },
    {
        "Altitude(m)": 565983.7073725787,
        "Argument of Periapsis(deg)": -0.02299970746337543,
        "Eccentricity": 0.0,
        "Inclination(deg)": 97.0,
        "Latitude(deg)": 19.455380993148754,
        "Longitude(deg)": 170.08577565643924,
        "Mean Anomaly(deg)": 160.41551946689253,
        "RAAN(deg)": 90.00605138789253,
        "Satellite Name": "Starlink Shell 3 1778",
        "Satellite Number": 1778,
        "Semi-Major Axis(m)": 6938478.169268562,
        "Time(s)": 580
    },
    {
        "Altitude(m)": 565938.1711171675,
        "Argument of Periapsis(deg)": -0.023396254143778456,
        "Eccentricity": 0.0,
        "Inclination(deg)": 97.0,
        "Latitude(deg)": 18.831964844470125,
        "Longitude(deg)": 169.95871914267587,
        "Mean Anomaly(deg)": 161.04099566459757,
        "RAAN(deg)": 90.00615572216653,
        "Satellite Name": "Starlink Shell 3 1778",
        "Satellite Number": 1778,
        "Semi-Major Axis(m)": 6938478.169268562,
        "Time(s)": 590
    },
    {
        "Altitude(m)": 565896.3110889969,
        "Argument of Periapsis(deg)": -0.023792800824181483,
        "Eccentricity": 0.0,
        "Inclination(deg)": 97.0,
        "Latitude(deg)": 18.20847105097068,
        "Longitude(deg)": 169.8322887187719,
        "Mean Anomaly(deg)": 161.6664718623026,
        "RAAN(deg)": 90.00626005644054,
        "Satellite Name": "Starlink Shell 3 1778",
        "Satellite Number": 1778,
        "Semi-Major Axis(m)": 6938478.169268562,
        "Time(s)": 600
    },
    {
        "Altitude(m)": 565858.1752708491,
        "Argument of Periapsis(deg)": -0.024189347504584503,
        "Eccentricity": 0.0,
        "Inclination(deg)": 97.0,
        "Latitude(deg)": 17.584902794763654,
        "Longitude(deg)": 169.70645774327892,
        "Mean Anomaly(deg)": 162.29194806000768,
        "RAAN(deg)": 90.00636439071454,
        "Satellite Name": "Starlink Shell 3 1778",
        "Satellite Number": 1778,
        "Semi-Major Axis(m)": 6938478.169268562,
        "Time(s)": 610
    },
    {
        "Altitude(m)": 565823.8099516301,
        "Argument of Periapsis(deg)": -0.02458589418498753,
        "Eccentricity": 0.0,
        "Inclination(deg)": 97.0,
        "Latitude(deg)": 16.96126324191742,
        "Longitude(deg)": 169.58120072645644,
        "Mean Anomaly(deg)": 162.9174242577127,
        "RAAN(deg)": 90.00646872498854,
        "Satellite Name": "Starlink Shell 3 1778",
        "Satellite Number": 1778,
        "Semi-Major Axis(m)": 6938478.169268562,
        "Time(s)": 620
    },
    {
        "Altitude(m)": 565793.2596998316,
        "Argument of Periapsis(deg)": -0.024982440865390556,
        "Eccentricity": 0.0,
        "Inclination(deg)": 97.0,
        "Latitude(deg)": 16.337555543787868,
        "Longitude(deg)": 169.45649211972102,
        "Mean Anomaly(deg)": 163.54290045541774,
        "RAAN(deg)": 90.00657305926256,
        "Satellite Name": "Starlink Shell 3 1778",
        "Satellite Number": 1778,
        "Semi-Major Axis(m)": 6938478.169268562,
        "Time(s)": 630
    },
    {
        "Altitude(m)": 565766.5673378038,
        "Argument of Periapsis(deg)": -0.025378987545793576,
        "Eccentricity": 0.0,
        "Inclination(deg)": 97.0,
        "Latitude(deg)": 15.713782838245205,
        "Longitude(deg)": 169.33230762798925,
        "Mean Anomaly(deg)": 164.16837665312278,
        "RAAN(deg)": 90.00667739353656,
        "Satellite Name": "Starlink Shell 3 1778",
        "Satellite Number": 1778,
        "Semi-Major Axis(m)": 6938478.169268562,
        "Time(s)": 640
    },
    {
        "Altitude(m)": 565743.773916901,
        "Argument of Periapsis(deg)": -0.025775534226196602,
        "Eccentricity": 0.0,
        "Inclination(deg)": 97.0,
        "Latitude(deg)": 15.08994825080752,
        "Longitude(deg)": 169.208623001909,
        "Mean Anomaly(deg)": 164.79385285082785,
        "RAAN(deg)": 90.00678172781058,
        "Satellite Name": "Starlink Shell 3 1778",
        "Satellite Number": 1778,
        "Semi-Major Axis(m)": 6938478.169268562,
        "Time(s)": 650
    },
    {
        "Altitude(m)": 565724.918693497,
        "Argument of Periapsis(deg)": -0.026172080906599626,
        "Eccentricity": 0.0,
        "Inclination(deg)": 97.0,
        "Latitude(deg)": 14.466054895681317,
        "Longitude(deg)": 169.08541451232145,
        "Mean Anomaly(deg)": 165.41932904853294,
        "RAAN(deg)": 90.0068860620846,
        "Satellite Name": "Starlink Shell 3 1778",
        "Satellite Number": 1778,
        "Semi-Major Axis(m)": 6938478.169268562,
        "Time(s)": 660
    },
    {
        "Altitude(m)": 565710.0391058793,
        "Argument of Periapsis(deg)": -0.026568627587002652,
        "Eccentricity": 0.0,
        "Inclination(deg)": 97.0,
        "Latitude(deg)": 13.84210587671683,
        "Longitude(deg)": 168.96265942590034,
        "Mean Anomaly(deg)": 166.04480524623793,
        "RAAN(deg)": 90.0069903963586,
        "Satellite Name": "Starlink Shell 3 1778",
        "Satellite Number": 1778,
        "Semi-Major Axis(m)": 6938478.169268562,
        "Time(s)": 670
    },
    {
        "Altitude(m)": 565699.1707520314,
        "Argument of Periapsis(deg)": -0.02696517426740568,
        "Eccentricity": 0.0,
        "Inclination(deg)": 97.0,
        "Latitude(deg)": 13.218104288284998,
        "Longitude(deg)": 168.84033496901887,
        "Mean Anomaly(deg)": 166.67028144394297,
        "RAAN(deg)": 90.0070947306326,
        "Satellite Name": "Starlink Shell 3 1778",
        "Satellite Number": 1778,
        "Semi-Major Axis(m)": 6938478.169268562,
        "Time(s)": 680
    },
    {
        "Altitude(m)": 565692.3473683641,
        "Argument of Periapsis(deg)": -0.0273617209478087,
        "Eccentricity": 0.0,
        "Inclination(deg)": 97.0,
        "Latitude(deg)": 12.59405321607817,
        "Longitude(deg)": 168.7184188055195,
        "Mean Anomaly(deg)": 167.295757641648,
        "RAAN(deg)": 90.00719906490663,
        "Satellite Name": "Starlink Shell 3 1778",
        "Satellite Number": 1778,
        "Semi-Major Axis(m)": 6938478.169268562,
        "Time(s)": 690
    },
    {
        "Altitude(m)": 565689.6008093205,
        "Argument of Periapsis(deg)": -0.027758267628211725,
        "Eccentricity": 0.0,
        "Inclination(deg)": 97.0,
        "Latitude(deg)": 11.969955737839733,
        "Longitude(deg)": 168.596889515444,
        "Mean Anomaly(deg)": 167.92123383935308,
        "RAAN(deg)": 90.00730339918063,
        "Satellite Name": "Starlink Shell 3 1778",
        "Satellite Number": 1778,
        "Semi-Major Axis(m)": 6938478.169268562,
        "Time(s)": 700
    },
    {
        "Altitude(m)": 565690.9610279641,
        "Argument of Periapsis(deg)": -0.028154814308614752,
        "Eccentricity": 0.0,
        "Inclination(deg)": 97.0,
        "Latitude(deg)": 11.345814924030023,
        "Longitude(deg)": 168.4757255617858,
        "Mean Anomaly(deg)": 168.54671003705812,
        "RAAN(deg)": 90.00740773345464,
        "Satellite Name": "Starlink Shell 3 1778",
        "Satellite Number": 1778,
        "Semi-Major Axis(m)": 6938478.169268562,
        "Time(s)": 710
    },
    {
        "Altitude(m)": 565696.4560574822,
        "Argument of Periapsis(deg)": -0.02855136098901778,
        "Eccentricity": 0.0,
        "Inclination(deg)": 97.0,
        "Latitude(deg)": 10.721633838428724,
        "Longitude(deg)": 168.35490577095175,
        "Mean Anomaly(deg)": 169.17218623476322,
        "RAAN(deg)": 90.00751206772864,
        "Satellite Name": "Starlink Shell 3 1778",
        "Satellite Number": 1778,
        "Semi-Major Axis(m)": 6938478.169268562,
        "Time(s)": 720
    },
    {
        "Altitude(m)": 565706.111993666,
        "Argument of Periapsis(deg)": -0.028947907669420805,
        "Eccentricity": 0.0,
        "Inclination(deg)": 97.0,
        "Latitude(deg)": 10.09741553867979,
        "Longitude(deg)": 168.23440981399912,
        "Mean Anomaly(deg)": 169.7976624324682,
        "RAAN(deg)": 90.00761640200267,
        "Satellite Name": "Starlink Shell 3 1778",
        "Satellite Number": 1778,
        "Semi-Major Axis(m)": 6938478.169268562,
        "Time(s)": 730
    },
    {
        "Altitude(m)": 565719.9529783622,
        "Argument of Periapsis(deg)": -0.029344454349823825,
        "Eccentricity": 0.0,
        "Inclination(deg)": 97.0,
        "Latitude(deg)": 9.47316307678464,
        "Longitude(deg)": 168.11421717572168,
        "Mean Anomaly(deg)": 170.42313863017324,
        "RAAN(deg)": 90.00772073627667,
        "Satellite Name": "Starlink Shell 3 1778",
        "Satellite Number": 1778,
        "Semi-Major Axis(m)": 6938478.169268562,
        "Time(s)": 740
    },
    {
        "Altitude(m)": 565738.001183891,
        "Argument of Periapsis(deg)": -0.029741001030226845,
        "Eccentricity": 0.0,
        "Inclination(deg)": 97.0,
        "Latitude(deg)": 8.84887949954387,
        "Longitude(deg)": 167.9943076372775,
        "Mean Anomaly(deg)": 171.04861482787823,
        "RAAN(deg)": 90.00782507055067,
        "Satellite Name": "Starlink Shell 3 1778",
        "Satellite Number": 1778,
        "Semi-Major Axis(m)": 6938478.169268562,
        "Time(s)": 750
    }
]